FENGYUN 1C DEB          
1 38513U 99025ESY 17345.28330744  .00001222  00000-0  19948-3 0  9997
2 38513  97.5707 168.4013 0423378 206.5943 151.2957 14.27012107216471
